[{"OBJECT_NAME":"ONEWEB-0505","OBJECT_ID":"2022-138L","EPOCH":"2026-04-01T04:06:18.694944","MEAN_MOTION":13.19724552,"ECCENTRICITY":0.000209,"INCLINATION":87.9205,"RA_OF_ASC_NODE":320.3158,"ARG_OF_PERICENTER":92.8043,"MEAN_ANOMALY":267.3329,"EPHEMERIS_TYPE":0,"CLASSIFICATION_TYPE":"U","NORAD_CAT_ID":54123,"ELEMENT_SET_NO":999,"REV_AT_EPOCH":16665,"BSTAR":0.0002039,"MEAN_MOTION_DOT":9.5e-07,"MEAN_MOTION_DDOT":0.0},{"OBJECT_NAME":"ONEWEB-0506","OBJECT_ID":"2022-138M","EPOCH":"2026-04-01T03:29:55.982112","MEAN_MOTION":13.19726782,"ECCENTRICITY":0.0001963,"INCLINATION":87.9203,"RA_OF_ASC_NODE":320.3181,"ARG_OF_PERICENTER":89.347,"MEAN_ANOMALY":270.7888,"EPHEMERIS_TYPE":0,"CLASSIFICATION_TYPE":"U","NORAD_CAT_ID":54124,"ELEMENT_SET_NO":999,"REV_AT_EPOCH":16664,"BSTAR":0.00012091,"MEAN_MOTION_DOT":6.1e-07,"MEAN_MOTION_DDOT":0.0},{"OBJECT_NAME":"ONEWEB-0507","OBJECT_ID":"2022-138N","EPOCH":"2026-04-01T03:59:30.343488","MEAN_MOTION":13.19725972,"ECCENTRICITY":0.0001926,"INCLINATION":87.9192,"RA_OF_ASC_NODE":320.3337,"ARG_OF_PERICENTER":85.5336,"MEAN_ANOMALY":274.6016,"EPHEMERIS_TYPE":0,"CLASSIFICATION_TYPE":"U","NORAD_CAT_ID":54125,"ELEMENT_SET_NO":999,"REV_AT_EPOCH":16669,"BSTAR":7.4744e-05,"MEAN_MOTION_DOT":4.3e-07,"MEAN_MOTION_DDOT":0.0},{"OBJECT_NAME":"ONEWEB-0508","OBJECT_ID":"2022-138P","EPOCH":"2026-04-01T03:54:55.439424","MEAN_MOTION":13.19727119,"ECCENTRICITY":0.0002158,"INCLINATION":87.9194,"RA_OF_ASC_NODE":320.333,"ARG_OF_PERICENTER":85.033,"MEAN_ANOMALY":275.1049,"EPHEMERIS_TYPE":0,"CLASSIFICATION_TYPE":"U","NORAD_CAT_ID":54126,"ELEMENT_SET_NO":999,"REV_AT_EPOCH":16667,"BSTAR":-0.0008407400000000001,"MEAN_MOTION_DOT":-3.24e-06,"MEAN_MOTION_DDOT":0.0},{"OBJECT_NAME":"ONEWEB-0509","OBJECT_ID":"2022-138Q","EPOCH":"2026-04-01T03:18:33.143904","MEAN_MOTION":13.197271,"ECCENTRICITY":0.0001834,"INCLINATION":87.9204,"RA_OF_ASC_NODE":320.3198,"ARG_OF_PERICENTER":85.2499,"MEAN_ANOMALY":274.8843,"EPHEMERIS_TYPE":0,"CLASSIFICATION_TYPE":"U","NORAD_CAT_ID":54127,"ELEMENT_SET_NO":999,"REV_AT_EPOCH":16664,"BSTAR":0.00025677,"MEAN_MOTION_DOT":1.16e-06,"MEAN_MOTION_DDOT":0.0},{"OBJECT_NAME":"ONEWEB-0510","OBJECT_ID":"2022-138R","EPOCH":"2026-04-01T02:05:02.099904","MEAN_MOTION":13.20772129,"ECCENTRICITY":0.0001261,"INCLINATION":87.9143,"RA_OF_ASC_NODE":289.8298,"ARG_OF_PERICENTER":82.1835,"MEAN_ANOMALY":277.9442,"EPHEMERIS_TYPE":0,"CLASSIFICATION_TYPE":"U","NORAD_CAT_ID":54128,"ELEMENT_SET_NO":999,"REV_AT_EPOCH":16910,"BSTAR":2.2633000000000004e-06,"MEAN_MOTION_DOT":1.4e-07,"MEAN_MOTION_DDOT":0.0},{"OBJECT_NAME":"ONEWEB-0511","OBJECT_ID":"2022-138S","EPOCH":"2026-04-01T03:14:00.529440","MEAN_MOTION":13.19722847,"ECCENTRICITY":0.0001636,"INCLINATION":87.9203,"RA_OF_ASC_NODE":320.3247,"ARG_OF_PERICENTER":94.727,"MEAN_ANOMALY":265.4049,"EPHEMERIS_TYPE":0,"CLASSIFICATION_TYPE":"U","NORAD_CAT_ID":54129,"ELEMENT_SET_NO":999,"REV_AT_EPOCH":16667,"BSTAR":0.0012494,"MEAN_MOTION_DOT":5.13e-06,"MEAN_MOTION_DDOT":0.0},{"OBJECT_NAME":"ONEWEB-0512","OBJECT_ID":"2022-138T","EPOCH":"2026-04-01T03:02:37.757760","MEAN_MOTION":13.19726695,"ECCENTRICITY":0.0001974,"INCLINATION":87.9193,"RA_OF_ASC_NODE":320.3379,"ARG_OF_PERICENTER":92.7839,"MEAN_ANOMALY":267.3519,"EPHEMERIS_TYPE":0,"CLASSIFICATION_TYPE":"U","NORAD_CAT_ID":54130,"ELEMENT_SET_NO":999,"REV_AT_EPOCH":16664,"BSTAR":0.00025073,"MEAN_MOTION_DOT":1.13e-06,"MEAN_MOTION_DDOT":0.0},{"OBJECT_NAME":"ONEWEB-0513","OBJECT_ID":"2022-138U","EPOCH":"2026-04-01T03:56:10.032000","MEAN_MOTION":13.20264032,"ECCENTRICITY":0.0002218,"INCLINATION":87.9203,"RA_OF_ASC_NODE":320.2839,"ARG_OF_PERICENTER":108.5695,"MEAN_ANOMALY":251.5679,"EPHEMERIS_TYPE":0,"CLASSIFICATION_TYPE":"U","NORAD_CAT_ID":54131,"ELEMENT_SET_NO":999,"REV_AT_EPOCH":16655,"BSTAR":3.5187e-05,"MEAN_MOTION_DOT":2.7e-07,"MEAN_MOTION_DDOT":0.0},{"OBJECT_NAME":"ONEWEB-0514","OBJECT_ID":"2022-138V","EPOCH":"2026-04-01T03:25:22.727424","MEAN_MOTION":13.19726068,"ECCENTRICITY":0.0001586,"INCLINATION":87.9194,"RA_OF_ASC_NODE":320.3241,"ARG_OF_PERICENTER":81.8037,"MEAN_ANOMALY":278.3275,"EPHEMERIS_TYPE":0,"CLASSIFICATION_TYPE":"U","NORAD_CAT_ID":54132,"ELEMENT_SET_NO":999,"REV_AT_EPOCH":16666,"BSTAR":0.00015505,"MEAN_MOTION_DOT":7.5e-07,"MEAN_MOTION_DDOT":0.0},{"OBJECT_NAME":"ONEWEB-0515","OBJECT_ID":"2022-138W","EPOCH":"2026-04-01T01:46:51.806208","MEAN_MOTION":13.20771206,"ECCENTRICITY":0.0001675,"INCLINATION":87.9149,"RA_OF_ASC_NODE":289.8222,"ARG_OF_PERICENTER":59.2609,"MEAN_ANOMALY":300.8689,"EPHEMERIS_TYPE":0,"CLASSIFICATION_TYPE":"U","NORAD_CAT_ID":54133,"ELEMENT_SET_NO":999,"REV_AT_EPOCH":16912,"BSTAR":-2.515e-05,"MEAN_MOTION_DOT":3e-08,"MEAN_MOTION_DDOT":0.0},{"OBJECT_NAME":"ONEWEB-0516","OBJECT_ID":"2022-138X","EPOCH":"2026-04-01T04:38:11.438016","MEAN_MOTION":13.19717757,"ECCENTRICITY":0.0001852,"INCLINATION":87.9193,"RA_OF_ASC_NODE":320.3257,"ARG_OF_PERICENTER":80.7202,"MEAN_ANOMALY":279.414,"EPHEMERIS_TYPE":0,"CLASSIFICATION_TYPE":"U","NORAD_CAT_ID":54134,"ELEMENT_SET_NO":999,"REV_AT_EPOCH":16667,"BSTAR":0.0037335000000000003,"MEAN_MOTION_DOT":1.508e-05,"MEAN_MOTION_DDOT":0.0},{"OBJECT_NAME":"ONEWEB-0517","OBJECT_ID":"2022-138Y","EPOCH":"2026-04-01T04:08:35.925792","MEAN_MOTION":13.19726291,"ECCENTRICITY":0.0001494,"INCLINATION":87.9193,"RA_OF_ASC_NODE":320.3191,"ARG_OF_PERICENTER":91.3387,"MEAN_ANOMALY":268.7917,"EPHEMERIS_TYPE":0,"CLASSIFICATION_TYPE":"U","NORAD_CAT_ID":54135,"ELEMENT_SET_NO":999,"REV_AT_EPOCH":16667,"BSTAR":0.00010384000000000001,"MEAN_MOTION_DOT":5.5e-07,"MEAN_MOTION_DDOT":0.0},{"OBJECT_NAME":"ONEWEB-0518","OBJECT_ID":"2022-138Z","EPOCH":"2026-04-01T02:46:42.935808","MEAN_MOTION":13.19726347,"ECCENTRICITY":0.0001923,"INCLINATION":87.9193,"RA_OF_ASC_NODE":320.3429,"ARG_OF_PERICENTER":86.4782,"MEAN_ANOMALY":273.6571,"EPHEMERIS_TYPE":0,"CLASSIFICATION_TYPE":"U","NORAD_CAT_ID":54136,"ELEMENT_SET_NO":999,"REV_AT_EPOCH":16666,"BSTAR":0.00036568,"MEAN_MOTION_DOT":1.59e-06,"MEAN_MOTION_DDOT":0.0},{"OBJECT_NAME":"ONEWEB-0519","OBJECT_ID":"2022-138AA","EPOCH":"2026-04-01T03:23:06.048672","MEAN_MOTION":13.19727206,"ECCENTRICITY":0.0001587,"INCLINATION":87.9202,"RA_OF_ASC_NODE":320.3197,"ARG_OF_PERICENTER":89.7421,"MEAN_ANOMALY":270.3894,"EPHEMERIS_TYPE":0,"CLASSIFICATION_TYPE":"U","NORAD_CAT_ID":54137,"ELEMENT_SET_NO":999,"REV_AT_EPOCH":16667,"BSTAR":9.446300000000001e-05,"MEAN_MOTION_DOT":5.1e-07,"MEAN_MOTION_DDOT":0.0},{"OBJECT_NAME":"ONEWEB-0520","OBJECT_ID":"2022-138AB","EPOCH":"2026-04-01T04:13:08.714784","MEAN_MOTION":13.19727282,"ECCENTRICITY":0.0001969,"INCLINATION":87.9194,"RA_OF_ASC_NODE":320.3173,"ARG_OF_PERICENTER":87.0071,"MEAN_ANOMALY":273.1287,"EPHEMERIS_TYPE":0,"CLASSIFICATION_TYPE":"U","NORAD_CAT_ID":54138,"ELEMENT_SET_NO":999,"REV_AT_EPOCH":16666,"BSTAR":0.00015589,"MEAN_MOTION_DOT":7.5e-07,"MEAN_MOTION_DDOT":0.0}]