ONEWEB-0505             
1 54123U 22138L   26091.17104971  .00000095  00000+0  20390-3 0  9999
2 54123  87.9205 320.3158 0002090  92.8043 267.3329 13.19724552166652
ONEWEB-0506             
1 54124U 22138M   26091.14578683  .00000061  00000+0  12091-3 0  9994
2 54124  87.9203 320.3181 0001963  89.3470 270.7888 13.19726782166644
ONEWEB-0507             
1 54125U 22138N   26091.16632342  .00000043  00000+0  74744-4 0  9994
2 54125  87.9192 320.3337 0001926  85.5336 274.6016 13.19725972166694
ONEWEB-0508             
1 54126U 22138P   26091.16314166 -.00000324  00000+0 -84074-3 0  9996
2 54126  87.9194 320.3330 0002158  85.0330 275.1049 13.19727119166672
ONEWEB-0509             
1 54127U 22138Q   26091.13788361  .00000116  00000+0  25677-3 0  9997
2 54127  87.9204 320.3198 0001834  85.2499 274.8843 13.19727100166640
ONEWEB-0510             
1 54128U 22138R   26091.08682986  .00000014  00000+0  22633-5 0  9996
2 54128  87.9143 289.8298 0001261  82.1835 277.9442 13.20772129169103
ONEWEB-0511             
1 54129U 22138S   26091.13472835  .00000513  00000+0  12494-2 0  9998
2 54129  87.9203 320.3247 0001636  94.7270 265.4049 13.19722847166678
ONEWEB-0512             
1 54130U 22138T   26091.12682590  .00000113  00000+0  25073-3 0  9994
2 54130  87.9193 320.3379 0001974  92.7839 267.3519 13.19726695166643
ONEWEB-0513             
1 54131U 22138U   26091.16400500  .00000027  00000+0  35187-4 0  9990
2 54131  87.9203 320.2839 0002218 108.5695 251.5679 13.20264032166550
ONEWEB-0514             
1 54132U 22138V   26091.14262416  .00000075  00000+0  15505-3 0  9995
2 54132  87.9194 320.3241 0001586  81.8037 278.3275 13.19726068166669
ONEWEB-0515             
1 54133U 22138W   26091.07421072  .00000003  00000+0 -25150-4 0  9993
2 54133  87.9149 289.8222 0001675  59.2609 300.8689 13.20771206169121
ONEWEB-0516             
1 54134U 22138X   26091.19318794  .00001508  00000+0  37335-2 0  9999
2 54134  87.9193 320.3257 0001852  80.7202 279.4140 13.19717757166674
ONEWEB-0517             
1 54135U 22138Y   26091.17263803  .00000055  00000+0  10384-3 0  9990
2 54135  87.9193 320.3191 0001494  91.3387 268.7917 13.19726291166672
ONEWEB-0518             
1 54136U 22138Z   26091.11577472  .00000159  00000+0  36568-3 0  9992
2 54136  87.9193 320.3429 0001923  86.4782 273.6571 13.19726347166660
ONEWEB-0519             
1 54137U 22138AA  26091.14104223  .00000051  00000+0  94463-4 0  9996
2 54137  87.9202 320.3197 0001587  89.7421 270.3894 13.19727206166674
ONEWEB-0520             
1 54138U 22138AB  26091.17579531  .00000075  00000+0  15589-3 0  9995
2 54138  87.9194 320.3173 0001969  87.0071 273.1287 13.19727282166665
